NORAD_CAT_ID,OBJECT_NAME,OBJECT_TYPE,EPOCH,MEAN_MOTION,ECCENTRICITY,INCLINATION,RA_OF_ASC_NODE,ARG_OF_PERICENTER,MEAN_ANOMALY,BSTAR,MEAN_MOTION_DOT,MEAN_MOTION_DDOT,TLE_LINE0,TLE_LINE1,TLE_LINE2,SEMIMAJOR_AXIS,PERIOD,APOGEE,PERIGEE,DECAYED
55954.0,STARLINK-5892,PAYLOAD,2024-01-23 06:19:57,14.98334171,0.0002951,69.9995,62.0382,280.5039,79.5788,0.00015328,1.737e-05,0.0,0 STARLINK-5892,1 55954U 23037AS  24023.26385976  .00001737  00000-0  15328-3 0  9990,2 55954  69.9995  62.0382 0002951 280.5039  79.5788 14.98334171 48177,6950.18,96.107,574.096,569.994,0.0
55954.0,STARLINK-5892,PAYLOAD,2024-01-23 12:44:29,14.98340258,0.0002744,69.9998,61.3671,267.5824,92.5021,0.00020297,2.33e-05,0.0,0 STARLINK-5892,1 55954U 23037AS  24023.53089251  .00002330  00000-0  20297-3 0  9998,2 55954  69.9998  61.3671 0002744 267.5824  92.5021 14.98340258 48550,6950.161,96.106,573.933,570.119,0.0
55954.0,STARLINK-5892,PAYLOAD,2024-01-24 12:46:31,14.98328098,0.0002791,69.9995,58.8429,260.0393,100.0451,-2.3502e-05,-3.73e-06,0.0,0 STARLINK-5892,1 55954U 23037AS  24024.53230592 -.00000373  00000-0 -23502-4 0  9995,2 55954  69.9995  58.8429 0002791 260.0393 100.0451 14.98328098 48369,6950.199,96.107,574.004,570.124,0.0
55954.0,STARLINK-5892,PAYLOAD,2024-01-25 11:12:23,14.98339883,0.0002881,69.9995,56.486,263.2574,96.8258,-7.0028e-05,-9.29e-06,0.0,0 STARLINK-5892,1 55954U 23037AS  24025.46693675 -.00000929  00000-0 -70028-4 0  9995,2 55954  69.9995  56.4860 0002881 263.2574  96.8258 14.98339883 48842,6950.162,96.106,574.03,570.025,0.0
55954.0,STARLINK-5892,PAYLOAD,2024-01-26 03:13:44,14.98328556,0.0002877,69.9996,54.8022,260.783,99.3004,5.9487e-05,6.17e-06,0.0,0 STARLINK-5892,1 55954U 23037AS  24026.13453799  .00000617  00000-0  59487-4 0  9999,2 55954  69.9996  54.8022 0002877 260.7830  99.3004 14.98328556 48940,6950.197,96.107,574.062,570.063,0.0
55954.0,STARLINK-5892,PAYLOAD,2024-01-26 11:14:24,14.98329846,0.0002854,69.9997,53.9606,260.5215,99.5621,6.8581e-05,7.25e-06,0.0,0 STARLINK-5892,1 55954U 23037AS  24026.46833694  .00000725  00000-0  68581-4 0  9996,2 55954  69.9997  53.9606 0002854 260.5215  99.5621 14.98329846 48657,6950.193,96.107,574.042,570.075,0.0
55954.0,STARLINK-5892,PAYLOAD,2024-01-27 03:15:45,14.9833047,0.0002719,70.0001,52.2778,255.6163,104.4694,-2.0043e-05,-3.32e-06,0.0,0 STARLINK-5892,1 55954U 23037AS  24027.13593865 -.00000332  00000-0 -20043-4 0  9991,2 55954  70.0001  52.2778 0002719 255.6163 104.4694 14.98330470 49095,6950.191,96.107,573.946,570.167,0.0
55954.0,STARLINK-5892,PAYLOAD,2024-01-27 11:16:25,14.98328842,0.0002808,69.9999,51.4355,263.1594,96.9246,-4.1657e-05,-5.9e-06,0.0,0 STARLINK-5892,1 55954U 23037AS  24027.46974054 -.00000590  00000-0 -41657-4 0  9990,2 55954  69.9999  51.4355 0002808 263.1594  96.9246 14.98328842 48807,6950.196,96.107,574.013,570.11,0.0
55954.0,STARLINK-5892,PAYLOAD,2024-01-28 04:53:53,14.98337793,0.0002967,69.9996,49.5834,268.2532,91.8288,3.9285e-05,3.76e-06,0.0,0 STARLINK-5892,1 55954U 23037AS  24028.20409049  .00000376  00000-0  39285-4 0  9994,2 55954  69.9996  49.5834 0002967 268.2532  91.8288 14.98337793 49253,6950.169,96.106,574.096,569.972,0.0
55954.0,STARLINK-5892,PAYLOAD,2024-01-28 11:18:25,14.9833914,0.0002943,69.9997,48.9104,267.6765,92.4057,5.3495e-05,5.45e-06,0.0,0 STARLINK-5892,1 55954U 23037AS  24028.47112785  .00000545  00000-0  53495-4 0  9998,2 55954  69.9997  48.9104 0002943 267.6765  92.4057 14.98339140 48957,6950.165,96.106,574.075,569.984,0.0
55954.0,STARLINK-5892,PAYLOAD,2024-01-29 03:19:46,14.98325271,0.0002489,70.0008,47.2281,261.3006,98.7871,1.2726e-05,5.9e-07,0.0,0 STARLINK-5892,1 55954U 23037AS  24029.13873714  .00000059  00000-0  12726-4 0  9990,2 55954  70.0008  47.2281 0002489 261.3006  98.7871 14.98325271 49397,6950.208,96.107,573.802,570.343,0.0
55954.0,STARLINK-5892,PAYLOAD,2024-01-29 11:20:27,14.98322987,0.0002567,70.0006,46.3857,264.7842,95.3024,-1.874e-05,-3.16e-06,0.0,0 STARLINK-5892,1 55954U 23037AS  24029.47254032 -.00000316  00000-0 -18740-4 0  9993,2 55954  70.0006  46.3857 0002567 264.7842  95.3024 14.98322987 49109,6950.215,96.107,573.864,570.295,0.0
55954.0,STARLINK-5892,PAYLOAD,2024-01-30 03:21:47,14.98330862,0.0002579,70.0004,44.7019,266.8348,93.2516,-5.4218e-05,-7.4e-06,0.0,0 STARLINK-5892,1 55954U 23037AS  24030.14013633 -.00000740  00000-0 -54218-4 0  9990,2 55954  70.0004  44.7019 0002579 266.8348  93.2516 14.98330862 49548,6950.19,96.107,573.848,570.263,0.0
55954.0,STARLINK-5892,PAYLOAD,2024-01-30 11:22:28,14.9832925,0.0002616,70.0005,43.8605,268.0774,92.0085,-6.5076e-05,-8.69e-06,0.0,0 STARLINK-5892,1 55954U 23037AS  24030.47393776 -.00000869  00000-0 -65076-4 0  9991,2 55954  70.0005  43.8605 0002616 268.0774  92.0085 14.98329250 49254,6950.195,96.107,573.878,570.242,0.0
55954.0,STARLINK-5892,PAYLOAD,2024-01-31 03:23:48,14.98328035,0.0002823,70.0,42.1769,267.8078,92.2758,4.0704e-05,3.93e-06,0.0,0 STARLINK-5892,1 55954U 23037AS  24031.14153527  .00000393  00000-0  40704-4 0  9995,2 55954  70.0000  42.1769 0002823 267.8078  92.2758 14.98328035 49693,6950.199,96.107,574.026,570.102,0.0
55954.0,STARLINK-5892,PAYLOAD,2024-01-31 11:24:28,14.98329335,0.0002802,70.0001,41.3352,267.2893,92.7946,5.221e-05,5.3e-06,0.0,0 STARLINK-5892,1 55954U 23037AS  24031.47533434  .00000530  00000-0  52210-4 0  9998,2 55954  70.0001  41.3352 0002802 267.2893  92.7946 14.98329335 49406,6950.195,96.107,574.007,570.113,0.0
55954.0,STARLINK-5892,PAYLOAD,2024-02-01 03:25:50,14.98324073,0.0002744,70.0002,39.652,265.9436,94.1409,-2.3881e-05,-3.78e-06,0.0,0 STARLINK-5892,1 55954U 23037AS  24032.14294084 -.00000378  00000-0 -23881-4 0  9992,2 55954  70.0002  39.6520 0002744 265.9436  94.1409 14.98324073 49849,6950.211,96.107,573.983,570.169,0.0
55954.0,STARLINK-5892,PAYLOAD,2024-02-01 09:50:22,14.98324479,0.0002689,70.0,38.9779,268.549,91.5361,-2.2073e-05,-3.56e-06,0.0,0 STARLINK-5892,1 55954U 23037AS  24032.40998154 -.00000356  00000-0 -22073-4 0  9998,2 55954  70.0000  38.9779 0002689 268.5490  91.5361 14.98324479 49547,6950.21,96.107,573.944,570.206,0.0
55954.0,STARLINK-5892,PAYLOAD,2024-02-02 03:27:50,14.98332765,0.0002904,69.9996,37.1255,269.9873,90.0953,1.3852e-05,7.2e-07,0.0,0 STARLINK-5892,1 55954U 23037AS  24033.14433495  .00000072  00000-0  13852-4 0  9990,2 55954  69.9996  37.1255 0002904 269.9873  90.0953 14.98332765 49995,6950.184,96.107,574.068,570.031,0.0
55954.0,STARLINK-5892,PAYLOAD,2024-02-02 09:52:22,14.98335953,0.000285,69.9998,36.4525,269.2862,90.797,5.2017e-05,5.28e-06,0.0,0 STARLINK-5892,1 55954U 23037AS  24033.41137118  .00000528  00000-0  52017-4 0  9995,2 55954  69.9998  36.4525 0002850 269.2862  90.7970 14.98335953 49695,6950.174,96.107,574.02,570.059,0.0
55954.0,STARLINK-5892,PAYLOAD,2024-02-03 03:29:51,14.98325666,0.0002806,69.9999,34.6011,269.8749,90.2088,2.0224e-05,1.48e-06,0.0,0 STARLINK-5892,1 55954U 23037AS  24034.14573826  .00000148  00000-0  20224-4 0  9999,2 55954  69.9999  34.6011 0002806 269.8749  90.2088 14.98325666 50144,6950.206,96.107,574.022,570.121,0.0
55954.0,STARLINK-5892,PAYLOAD,2024-02-03 09:54:23,14.98327326,0.0002756,70.0001,33.9282,268.5211,91.5633,3.7557e-05,3.55e-06,0.0,0 STARLINK-5892,1 55954U 23037AS  24034.41277713  .00000355  00000-0  37557-4 0  9992,2 55954  70.0001  33.9282 0002756 268.5211  91.5633 14.98327326 49847,6950.201,96.107,573.982,570.151,0.0
55954.0,STARLINK-5892,PAYLOAD,2024-02-04 03:31:52,14.98333083,0.0002657,70.0005,32.0777,263.7605,96.3251,-2.9281e-05,-4.42e-06,0.0,0 STARLINK-5892,1 55954U 23037AS  24035.14713468 -.00000442  00000-0 -29281-4 0  9999,2 55954  70.0005  32.0777 0002657 263.7605  96.3251 14.98333083 50291,6950.183,96.107,573.895,570.202,0.0
55954.0,STARLINK-5892,PAYLOAD,2024-02-04 09:56:24,14.98332998,0.0002667,70.0004,31.404,264.6558,95.4297,-2.5565e-05,-3.98e-06,0.0,0 STARLINK-5892,1 55954U 23037AS  24035.41417421 -.00000398  00000-0 -25565-4 0  9990,2 55954  70.0004  31.4040 0002667 264.6558  95.4297 14.98332998 49993,6950.184,96.107,573.902,570.195,0.0
55954.0,STARLINK-5892,PAYLOAD,2024-02-05 03:33:53,14.98328802,0.0002737,70.0003,29.5522,265.1941,94.8906,3.1961e-06,-5.5e-07,0.0,0 STARLINK-5892,1 55954U 23037AS  24036.14853524 -.00000055  00000-0  31961-5 0  9996,2 55954  70.0003  29.5522 0002737 265.1941  94.8906 14.98328802 50446,6950.197,96.107,573.964,570.159,0.0
55954.0,STARLINK-5892,PAYLOAD,2024-02-05 08:22:17,14.98329699,0.0002721,70.0004,29.0474,265.2765,94.8083,1.3308e-05,6.6e-07,0.0,0 STARLINK-5892,1 55954U 23037AS  24036.34881447  .00000066  00000-0  13308-4 0  9998,2 55954  70.0004  29.0474 0002721 265.2765  94.8083 14.98329699 50133,6950.194,96.107,573.95,570.168,0.0
55954.0,STARLINK-5892,PAYLOAD,2024-02-06 03:35:54,14.98331885,0.0002712,70.0006,27.0275,261.3756,98.7096,1.036e-05,3.1e-07,0.0,0 STARLINK-5892,1 55954U 23037AS  24037.14993207  .00000031  00000-0  10360-4 0  9992,2 55954  70.0006  27.0275 0002712 261.3756  98.7096 14.98331885 50596,6950.187,96.107,573.937,570.167,0.0
55954.0,STARLINK-5892,PAYLOAD,2024-02-06 10:00:26,14.98333637,0.0002687,70.0008,26.3543,260.1122,99.9734,3.0104e-05,2.66e-06,0.0,0 STARLINK-5892,1 55954U 23037AS  24037.41696985  .00000266  00000-0  30104-4 0  9993,2 55954  70.0008  26.3543 0002687 260.1122  99.9734 14.98333637 50299,6950.182,96.107,573.914,570.179,0.0
55954.0,STARLINK-5892,PAYLOAD,2024-02-07 03:37:55,14.98326023,0.000255,70.0016,24.5042,247.4829,112.6061,-2.4287e-05,-3.83e-06,0.0,0 STARLINK-5892,1 55954U 23037AS  24038.15133581 -.00000383  00000-0 -24287-4 0  9990,2 55954  70.0016  24.5042 0002550 247.4829 112.6061 14.98326023 50740,6950.205,96.107,573.842,570.298,0.0
55954.0,STARLINK-5892,PAYLOAD,2024-02-07 08:26:19,14.9832533,0.0002552,70.0016,23.999,249.3331,110.7555,-3.2033e-05,-4.75e-06,0.0,0 STARLINK-5892,1 55954U 23037AS  24038.35161698 -.00000475  00000-0 -32033-4 0  9992,2 55954  70.0016  23.9990 0002552 249.3331 110.7555 14.98325330 50439,6950.207,96.107,573.846,570.299,0.0
